satname,norad_id,inclination_deg,eccentricity,mean_motion_rev_per_day,perigee_km,apogee_km,l1,l2
STARLINK-1506,45747,53.065,0.0002178,15.21902141,498.6054031520407,501.6015647068398,1 45747U 20038T   25319.56191582  .00010563  00000+0  47167-3 0  9999,2 45747  53.0650   8.6619 0002178 310.6448  49.4359 15.21902141299282
STARLINK-1464,45751,53.056,0.0001419,15.06393294,546.2494010618402,548.2148208155259,1 45751U 20038X   25319.44914519  .00008407  00000+0  58269-3 0  9993,2 45751  53.0560   9.4654 0001419 102.3014 257.8134 15.06393294299267
STARLINK-1477,45754,53.0547,0.0002705,15.07507927,541.945612252136,545.6903899077206,1 45754U 20038AA  25319.52239919  .00004790  00000+0  33041-3 0  9991,2 45754  53.0547   9.0506 0002705  30.2956 329.8189 15.07507927299272
STARLINK-1478,45755,53.0543,0.0001587,15.06374947,546.1892778372539,548.3874078410718,1 45755U 20038AB  25319.41594970  .00009415  00000+0  65054-3 0  9999,2 45755  53.0543   9.6107 0001587  94.2915 265.8255 15.06374947299247
STARLINK-1484,45756,53.0156,0.000349,15.64319461,372.83977573224274,377.55360264729643,1 45756U 20038AC  25319.87191760  .00082373  00000+0  84276-3 0  9991,2 45756  53.0156 267.0279 0003490  73.2490 286.8906 15.64319461300724
STARLINK-1493,45759,53.055,0.0001851,15.06404884,545.9147099747797,548.4784684695096,1 45759U 20038AF  25319.53758715  .00006967  00000+0  48610-3 0  9993,2 45759  53.0550   9.0647 0001851  97.2459 262.8741 15.06404884299265
STARLINK-1494,45760,53.0551,0.0004328,15.5283159,405.52602295139786,411.4005041395221,1 45760U 20038AG  25319.47609119  .00038604  00000+0  61637-3 0  9998,2 45760  53.0551 349.6040 0004328  53.2560 306.8846 15.52831590299540
STARLINK-1502,45764,53.0576,0.0002003,15.06467686,545.6170120982179,548.3912236300348,1 45764U 20038AL  25319.37174192  .00026872  00000+0  18127-2 0  9998,2 45764  53.0576   9.8123 0002003  58.0934 302.0250 15.06467686299259
STARLINK-1470,45772,53.0505,0.0004392,15.18670059,506.83381146022293,512.8842271635858,1 45772U 20038AU  25319.37500193  .00005177  00000+0  26171-3 0  9995,2 45772  53.0505 341.0264 0004392 321.5131  38.5549 15.18670059299656
STARLINK-1482,45773,53.0542,0.0001359,15.06405689,546.2529695280336,548.1352745270005,1 45773U 20038AV  25319.46942241  .00014893  00000+0  10164-2 0  9999,2 45773  53.0542 349.3731 0001359  92.1899 267.9245 15.06405689299541
STARLINK-1496,45780,53.0548,0.0001661,15.06415633,546.0133530219837,548.3139378964052,1 45780U 20038BC  25319.36989794  .00020772  00000+0  14087-2 0  9991,2 45780  53.0548 349.8193 0001661  89.5615 270.5564 15.06415633299515
STARLINK-1497,45781,53.0381,0.0006589,15.5840498,387.8117757384334,396.7338217712322,1 45781U 20038BD  25319.78264648  .00077979  00000+0  10023-2 0  9999,2 45781  53.0381 287.8921 0006589  10.5264 349.5884 15.58404980300435
STARLINK-1510,45784,53.0298,0.0004613,15.76536292,337.1638365981644,343.36223247002545,1 45784U 20038BG  25319.91671295  .00148676  00000+0  90370-3 0  9994,2 45784  53.0298 261.5348 0004613 104.8969  16.1106 15.76536292  6015
STARLINK-1513,45786,53.056,0.0001466,15.06377405,546.2655429737724,548.2960754754386,1 45786U 20038BJ  25319.46573294 -.00001370  00000+0 -73144-4 0  9998,2 45786  53.0560 349.3907 0001466  99.2499 260.8656 15.06377405299545
STARLINK-1522,46027,53.0553,0.0001596,15.06397189,546.1148862569644,548.3254602666693,1 46027U 20055A   25319.18099583  .00014413  00000+0  98460-3 0  9996,2 46027  53.0553 280.6658 0001596 114.9788 245.1367 15.06397189291623
STARLINK-1523,46028,53.0544,0.0001092,15.06391418,546.481609722332,547.9941115918991,1 46028U 20055B   25318.59861258  .00021534  00000+0  14605-2 0  9997,2 46028  53.0544 283.2840 0001092  81.0492 279.0620 15.06391418291552
STARLINK-1526,46029,53.0551,0.0001179,15.06427155,546.3118442417554,547.9448218072821,1 46029U 20055C   25319.58639946  .00004150  00000+0  29710-3 0  9994,2 46029  53.0551 278.8451 0001179  92.5679 267.5445 15.06427155291699
STARLINK-1555,46032,53.0544,0.0001248,15.06372332,546.4320635882468,548.1606517543223,1 46032U 20055F   25318.70917944 -.00003209  00000+0 -19681-3 0  9990,2 46032  53.0544 282.7838 0001248  99.8095 260.3035 15.06372332291565
STARLINK-1556,46033,53.0541,0.0001558,15.06442303,546.002959264134,548.1608574759812,1 46033U 20055G   25319.61958062  .00002492  00000+0  18594-3 0  9991,2 46033  53.0541 278.6977 0001558  85.5998 274.5169 15.06442303291672
STARLINK-1557,46034,53.0555,0.0001452,15.06395956,546.2183898332969,548.2295146538272,1 46034U 20055H   25319.62328137 -.00004350  00000+0 -27334-3 0  9996,2 46034  53.0555 278.6804 0001452  98.3154 261.8000 15.06395956291670
STARLINK-1558,46035,53.0542,0.0001436,15.06435469,546.1083882518369,548.0973171375299,1 46035U 20055J   25319.63063334 -.00011543  00000+0 -75652-3 0  9991,2 46035  53.0542 278.6493 0001436  81.3605 278.7547 15.06435469291707
STARLINK-1560,46036,53.053,0.0001277,15.06424279,546.2527897908949,548.0215048081154,1 46036U 20055K   25319.61592904  .00016390  00000+0  11159-2 0  9994,2 46036  53.0530 278.7172 0001277  86.9865 273.1271 15.06424279291702
STARLINK-1567,46038,53.0539,0.0001338,15.06393039,546.3062779912516,548.159506974479,1 46038U 20055M   25319.62698882  .00012525  00000+0  85840-3 0  9994,2 46038  53.0539 278.6647 0001338  89.0166 271.0976 15.06393039291691
STARLINK-1569,46039,53.0536,0.0001403,15.0636155,546.3577612205936,548.3010470936006,1 46039U 20055N   25318.30742231  .00015090  00000+0  10308-2 0  9993,2 46039  53.0536 284.5906 0001403  86.4888 273.6262 15.06361550291495
STARLINK-1582,46043,53.0551,0.0001519,15.06425767,546.0806384698199,548.1845353703266,1 46043U 20055S   25318.64650118  .00016484  00000+0  11221-2 0  9990,2 46043  53.0551 283.0652 0001519 107.4881 252.6274 15.06425767291541
STARLINK-1591,46045,53.0538,0.0001184,15.06393308,546.4121043327268,548.0520317280361,1 46045U 20055U   25319.60119225  .00011683  00000+0  80204-3 0  9992,2 46045  53.0538 278.7811 0001184  93.8397 266.2728 15.06393308291678
STARLINK-1524,46047,53.0569,0.0001455,15.06380695,546.2630787906492,548.2783724388019,1 46047U 20055W   25319.81957767  .00002849  00000+0  21021-3 0  9994,2 46047  53.0569 267.7984 0001455 117.5775 242.5362 15.06380695291865
STARLINK-1527,46048,53.0549,0.0001475,15.06379103,546.254106614716,548.2971033331823,1 46048U 20055X   25318.28989397 -.00002767  00000+0 -16702-3 0  9990,2 46048  53.0549 274.6664 0001475 100.9546 259.1609 15.06379103291613
